{
  "type": "FeatureCollection",
  "features": [
    {
      "type": "Feature",
      "properties": {
        "norad_id": 30218,
        "name": "FENGYUN 1C DEB",
        "group": "fengyun-1c-debris",
        "lat": -26.65082718633235,
        "lon": -105.43409413532724,
        "alt_km": 761.4678174769351,
        "timestamp": "2025-12-15T15:53:20.126859+00:00",
        "meta_object_name": "FENGYUN 1C DEB",
        "meta_object_id": "1999-025WB",
        "meta_epoch": "2025-12-14T05:25:55.523712",
        "meta_mean_motion": 14.28833428,
        "meta_eccentricity": 0.00706664,
        "meta_inclination": 98.9881,
        "meta_ra_of_asc_node": 77.6429,
        "meta_arg_of_pericenter": 249.6637,
        "meta_mean_anomaly": 136.8856,
        "meta_ephemeris_type": 0,
        "meta_classification_type": "U",
        "meta_norad_cat_id": 30218,
        "meta_element_set_no": 999,
        "meta_rev_at_epoch": 97130,
        "meta_bstar": 0.0027343917,
        "meta_mean_motion_dot": 7.041e-05,
        "meta_mean_motion_ddot": 0,
        "tle_line1": "1 30218U 99025WB  25348.22633708  .00007041  00000+0  27344-2 0  9995",
        "tle_line2": "2 30218  98.9881  77.6429 0070666 249.6637 136.8856 14.28833428971306"
      },
      "geometry": {
        "type": "Point",
        "coordinates": [
          -105.43409413532724,
          -26.65082718633235
        ]
      }
    },
    {
      "type": "Feature",
      "properties": {
        "norad_id": 30221,
        "name": "FENGYUN 1C DEB",
        "group": "fengyun-1c-debris",
        "lat": -63.00919119726358,
        "lon": 95.52740219932808,
        "alt_km": 757.741813570442,
        "timestamp": "2025-12-15T15:53:20.126868+00:00",
        "meta_object_name": "FENGYUN 1C DEB",
        "meta_object_id": "1999-025WE",
        "meta_epoch": "2025-12-14T20:15:08.206272",
        "meta_mean_motion": 14.45816836,
        "meta_eccentricity": 0.01453576,
        "meta_inclination": 98.9563,
        "meta_ra_of_asc_node": 76.6264,
        "meta_arg_of_pericenter": 35.1265,
        "meta_mean_anomaly": 325.9405,
        "meta_ephemeris_type": 0,
        "meta_classification_type": "U",
        "meta_norad_cat_id": 30221,
        "meta_element_set_no": 999,
        "meta_rev_at_epoch": 99431,
        "meta_bstar": 0.00021796637,
        "meta_mean_motion_dot": 8.26e-06,
        "meta_mean_motion_ddot": 0,
        "tle_line1": "1 30221U 99025WE  25348.84384498  .00000826  00000+0  21797-3 0  9997",
        "tle_line2": "2 30221  98.9563  76.6264 0145357  35.1265 325.9405 14.45816836994318"
      },
      "geometry": {
        "type": "Point",
        "coordinates": [
          95.52740219932808,
          -63.00919119726358
        ]
      }
    },
    {
      "type": "Feature",
      "properties": {
        "norad_id": 30222,
        "name": "FENGYUN 1C DEB",
        "group": "fengyun-1c-debris",
        "lat": -14.956956367098925,
        "lon": -159.41485059062742,
        "alt_km": 911.0300311069705,
        "timestamp": "2025-12-15T15:53:20.126877+00:00",
        "meta_object_name": "FENGYUN 1C DEB",
        "meta_object_id": "1999-025WF",
        "meta_epoch": "2025-12-14T15:37:16.882176",
        "meta_mean_motion": 14.04074878,
        "meta_eccentricity": 0.00379159,
        "meta_inclination": 98.8412,
        "meta_ra_of_asc_node": 21.9844,
        "meta_arg_of_pericenter": 31.9051,
        "meta_mean_anomaly": 94.8186,
        "meta_ephemeris_type": 0,
        "meta_classification_type": "U",
        "meta_norad_cat_id": 30222,
        "meta_element_set_no": 999,
        "meta_rev_at_epoch": 96865,
        "meta_bstar": -3.599697e-06,
        "meta_mean_motion_dot": -4.9e-07,
        "meta_mean_motion_ddot": 0,
        "tle_line1": "1 30222U 99025WF  25348.65088984 -.00000049  00000+0 -35997-5 0  9996",
        "tle_line2": "2 30222  98.8412  21.9844 0037915  31.9051  94.8186 14.04074878968658"
      },
      "geometry": {
        "type": "Point",
        "coordinates": [
          -159.41485059062742,
          -14.956956367098925
        ]
      }
    },
    {
      "type": "Feature",
      "properties": {
        "norad_id": 30224,
        "name": "FENGYUN 1C DEB",
        "group": "fengyun-1c-debris",
        "lat": -46.14834811858594,
        "lon": -161.55610959389313,
        "alt_km": 960.7875474375342,
        "timestamp": "2025-12-15T15:53:20.126886+00:00",
        "meta_object_name": "FENGYUN 1C DEB",
        "meta_object_id": "1999-025WH",
        "meta_epoch": "2025-12-14T20:38:57.747840",
        "meta_mean_motion": 13.89867853,
        "meta_eccentricity": 0.01111009,
        "meta_inclination": 99.4839,
        "meta_ra_of_asc_node": 27.6474,
        "meta_arg_of_pericenter": 337.5899,
        "meta_mean_anomaly": 201.5968,
        "meta_ephemeris_type": 0,
        "meta_classification_type": "U",
        "meta_norad_cat_id": 30224,
        "meta_element_set_no": 999,
        "meta_rev_at_epoch": 95770,
        "meta_bstar": 0.00037501545,
        "meta_mean_motion_dot": 4.38e-06,
        "meta_mean_motion_ddot": 0,
        "tle_line1": "1 30224U 99025WH  25348.86039060  .00000438  00000+0  37502-3 0  9994",
        "tle_line2": "2 30224  99.4839  27.6474 0111100 337.5899 201.5968 13.89867853957700"
      },
      "geometry": {
        "type": "Point",
        "coordinates": [
          -161.55610959389313,
          -46.14834811858594
        ]
      }
    },
    {
      "type": "Feature",
      "properties": {
        "norad_id": 30225,
        "name": "FENGYUN 1C DEB",
        "group": "fengyun-1c-debris",
        "lat": -56.66514249706401,
        "lon": 29.74576093207792,
        "alt_km": 899.8864202571913,
        "timestamp": "2025-12-15T15:53:20.126895+00:00",
        "meta_object_name": "FENGYUN 1C DEB",
        "meta_object_id": "1999-025WJ",
        "meta_epoch": "2025-12-14T20:37:46.828992",
        "meta_mean_motion": 14.15185463,
        "meta_eccentricity": 0.01004673,
        "meta_inclination": 98.6599,
        "meta_ra_of_asc_node": 15.5693,
        "meta_arg_of_pericenter": 79.9398,
        "meta_mean_anomaly": 97.2428,
        "meta_ephemeris_type": 0,
        "meta_classification_type": "U",
        "meta_norad_cat_id": 30225,
        "meta_element_set_no": 999,
        "meta_rev_at_epoch": 97566,
        "meta_bstar": 0.00017798662,
        "meta_mean_motion_dot": 3.21e-06,
        "meta_mean_motion_ddot": 0,
        "tle_line1": "1 30225U 99025WJ  25348.85956978  .00000321  00000+0  17799-3 0  9997",
        "tle_line2": "2 30225  98.6599  15.5693 0100467  79.9398  97.2428 14.15185463975665"
      },
      "geometry": {
        "type": "Point",
        "coordinates": [
          29.74576093207792,
          -56.66514249706401
        ]
      }
    },
    {
      "type": "Feature",
      "properties": {
        "norad_id": 30229,
        "name": "FENGYUN 1C DEB",
        "group": "fengyun-1c-debris",
        "lat": -60.620007304340305,
        "lon": 66.03551245418879,
        "alt_km": 699.8404940651799,
        "timestamp": "2025-12-15T15:53:20.126904+00:00",
        "meta_object_name": "FENGYUN 1C DEB",
        "meta_object_id": "1999-025WN",
        "meta_epoch": "2025-12-14T10:38:29.383296",
        "meta_mean_motion": 14.60588178,
        "meta_eccentricity": 0.00373763,
        "meta_inclination": 99.0631,
        "meta_ra_of_asc_node": 48.2335,
        "meta_arg_of_pericenter": 35.3475,
        "meta_mean_anomaly": 339.0986,
        "meta_ephemeris_type": 0,
        "meta_classification_type": "U",
        "meta_norad_cat_id": 30229,
        "meta_element_set_no": 999,
        "meta_rev_at_epoch": 98951,
        "meta_bstar": 0.0018906935,
        "meta_mean_motion_dot": 9.235e-05,
        "meta_mean_motion_ddot": 0,
        "tle_line1": "1 30229U 99025WN  25348.44339564  .00009235  00000+0  18907-2 0  9996",
        "tle_line2": "2 30229  99.0631  48.2335 0037376  35.3475 339.0986 14.60588178989512"
      },
      "geometry": {
        "type": "Point",
        "coordinates": [
          66.03551245418879,
          -60.620007304340305
        ]
      }
    },
    {
      "type": "Feature",
      "properties": {
        "norad_id": 30231,
        "name": "FENGYUN 1C DEB",
        "group": "fengyun-1c-debris",
        "lat": 9.71919114053666,
        "lon": 32.84541996730719,
        "alt_km": 764.1219513424194,
        "timestamp": "2025-12-15T15:53:20.126915+00:00",
        "meta_object_name": "FENGYUN 1C DEB",
        "meta_object_id": "1999-025WQ",
        "meta_epoch": "2025-12-14T21:57:13.114368",
        "meta_mean_motion": 14.11649019,
        "meta_eccentricity": 0.01283386,
        "meta_inclination": 98.805,
        "meta_ra_of_asc_node": 33.6332,
        "meta_arg_of_pericenter": 23.0998,
        "meta_mean_anomaly": 151.4968,
        "meta_ephemeris_type": 0,
        "meta_classification_type": "U",
        "meta_norad_cat_id": 30231,
        "meta_element_set_no": 999,
        "meta_rev_at_epoch": 97050,
        "meta_bstar": 0.00061185928,
        "meta_mean_motion_dot": 1.159e-05,
        "meta_mean_motion_ddot": 0,
        "tle_line1": "1 30231U 99025WQ  25348.91473512  .00001159  00000+0  61186-3 0  9998",
        "tle_line2": "2 30231  98.8050  33.6332 0128338  23.0998 151.4968 14.11649019970508"
      },
      "geometry": {
        "type": "Point",
        "coordinates": [
          32.84541996730719,
          9.71919114053666
        ]
      }
    }
  ]
}